NOAA 15                 
1 25338U 98030A   22300.45731741  .00000127  00000+0  71114-4 0  9997
2 25338  98.6335 328.2042 0009282 272.8282  87.1836 14.26187459272089
NOAA 18                 
1 28654U 05018A   22300.43163350  .00000207  00000+0  13564-3 0  9991
2 28654  98.9371  10.6865 0013504 321.3636  38.6568 14.12796525898707
NOAA 19                 
1 33591U 09005A   22300.44798866  .00000171  00000+0  11716-3 0  9991
2 33591  99.1347 337.2802 0014057 173.6914 186.4436 14.12628090707086
METOP-B                 
1 38771U 12049A   22300.47653997  .00000095  00000+0  63500-4 0  9990
2 38771  98.7140 358.3333 0001266  64.4710  61.2382 14.21486423524482
SARAL                   
1 39086U 13009A   22300.51411806  .00000062  00000+0  39441-4 0  9994
2 39086  98.5477 124.2148 0000459 152.1022 208.0186 14.32039846505387
METOP-C                 
1 43689U 18087A   22300.48857096  .00000093  00000+0  62704-4 0  9992
2 43689  98.7186 358.3634 0003519  33.4339 326.7060 14.21480151206061
ANGELS                  
1 44876U 19092D   22299.75584054  .00002528  00000+0  12538-3 0  9990
2 44876  97.4754 121.5823 0010425 260.3643  99.6414 15.18609151158166
GAZELLE                 
1 54023U 22127A   22300.03887420 -.00000043  00000+0  00000+0 0  9993
2 54023  98.3157 298.9057 0012194 239.2141 120.7875 14.41646660  2783
